{
  "type": "FeatureCollection",
  "name": "constraints_metabolism",
  "crs_note": "Coordinates in EPSG:4326; areas recomputed in EPSG:4548.",
  "features": [
    {
      "type": "Feature",
      "id": "CONSTRAINT-001",
      "properties": {
        "id": "CONSTRAINT-001",
        "layer": "REGULATORY_CONTROL",
        "name_zh": "铁路遗产参考保护带（概念）",
        "name_en": "Rail heritage reference band (conceptual)",
        "source_type": "agent_generated_design",
        "confidence": "low",
        "geometry_role": "analysis_helper",
        "design_note_zh": "概念性铁路遗产展示参考带，非文保法定范围；待文物与铁路部门确认。",
        "area_sqm_declared": 737369.353
      },
      "geometry": {
        "type": "Polygon",
        "coordinates": [
          [
            [
              116.3468345,
              40.0261967
            ],
            [
              116.3468405,
              40.0262299
            ],
            [
              116.3468508,
              40.0262626
            ],
            [
              116.3468653,
              40.0262943
            ],
            [
              116.3468837,
              40.0263247
            ],
            [
              116.3469058,
              40.0263537
            ],
            [
              116.3469316,
              40.0263808
            ],
            [
              116.3469607,
              40.0264058
            ],
            [
              116.3469929,
              40.0264286
            ],
            [
              116.3470277,
              40.0264488
            ],
            [
              116.3470651,
              40.0264663
            ],
            [
              116.3471044,
              40.0264808
            ],
            [
              116.3471454,
              40.0264924
            ],
            [
              116.3471846,
              40.0265002
            ],
            [
              116.34737,
              40.0265002
            ],
            [
              116.3474039,
              40.0264938
            ],
            [
              116.3474451,
              40.0264828
            ],
            [
              116.3474847,
              40.0264686
            ],
            [
              116.3475224,
              40.0264516
            ],
            [
              116.3475576,
              40.0264318
            ],
            [
              116.3475902,
              40.0264094
            ],
            [
              116.3476198,
              40.0263847
            ],
            [
              116.3476461,
              40.0263578
            ],
            [
              116.3476688,
              40.0263292
            ],
            [
              116.3476878,
              40.0262989
            ],
            [
              116.3477028,
              40.0262674
            ],
            [
              116.3477137,
              40.0262349
            ],
            [
              116.3477204,
              40.0262017
            ],
            [
              116.3477229,
              40.0261681
            ],
            [
              116.3485482,
              39.9393225
            ],
            [
              116.3485464,
              39.939289
            ],
            [
              116.3485403,
              39.9392557
            ],
            [
              116.34853,
              39.9392231
            ],
            [
              116.3485156,
              39.9391914
            ],
            [
              116.3484973,
              39.9391609
            ],
            [
              116.3484751,
              39.939132
            ],
            [
              116.3484494,
              39.9391048
            ],
            [
              116.3484203,
              39.9390798
            ],
            [
              116.3483882,
              39.9390571
            ],
            [
              116.3483534,
              39.9390369
            ],
            [
              116.3483161,
              39.9390194
            ],
            [
              116.3482768,
              39.9390048
            ],
            [
              116.3482606,
              39.9390002
            ],
            [
              116.3479464,
              39.9390002
            ],
            [
              116.3479365,
              39.9390029
            ],
            [
              116.347897,
              39.939017
            ],
            [
              116.3478594,
              39.9390341
            ],
            [
              116.3478241,
              39.9390539
            ],
            [
              116.3477916,
              39.9390763
            ],
            [
              116.3477621,
              39.939101
            ],
            [
              116.3477358,
              39.9391278
            ],
            [
              116.3477131,
              39.9391565
            ],
            [
              116.3476942,
              39.9391867
            ],
            [
              116.3476792,
              39.9392183
            ],
            [
              116.3476683,
              39.9392508
            ],
            [
              116.3476616,
              39.939284
            ],
            [
              116.3476591,
              39.9393175
            ],
            [
              116.3468326,
              40.0261631
            ],
            [
              116.3468345,
              40.0261967
            ]
          ]
        ]
      }
    },
    {
      "type": "Feature",
      "id": "CONSTRAINT-002",
      "properties": {
        "id": "CONSTRAINT-002",
        "layer": "REGULATORY_CONTROL",
        "name_zh": "东侧快速路噪声参考缓冲",
        "name_en": "Eastern expressway noise reference buffer",
        "source_type": "agent_generated_design",
        "confidence": "low",
        "geometry_role": "analysis_helper",
        "design_note_zh": "东侧京藏高速方向噪声缓冲参考（概念），非官方红线或声环境功能区。",
        "area_sqm_declared": 1177762.03
      },
      "geometry": {
        "type": "Polygon",
        "coordinates": [
          [
            [
              116.3553,
              40.0265
            ],
            [
              116.3533,
              39.99
            ],
            [
              116.3553,
              39.965
            ],
            [
              116.3553,
              39.939
            ],
            [
              116.3531377,
              39.9390001
            ],
            [
              116.3531266,
              39.9401709
            ],
            [
              116.353779,
              39.9401709
            ],
            [
              116.3537785,
              39.964964
            ],
            [
              116.3527747,
              39.9775101
            ],
            [
              116.3525274,
              40.0037115
            ],
            [
              116.3537116,
              40.0253293
            ],
            [
              116.352323,
              40.0253294
            ],
            [
              116.352312,
              40.0265001
            ],
            [
              116.3553,
              40.0265
            ]
          ]
        ]
      }
    },
    {
      "type": "Feature",
      "id": "CONSTRAINT-003",
      "properties": {
        "id": "CONSTRAINT-003",
        "layer": "REGULATORY_CONTROL",
        "name_zh": "北五环交通影响参考缓冲",
        "name_en": "North Fifth-Ring traffic reference buffer",
        "source_type": "agent_generated_design",
        "confidence": "low",
        "geometry_role": "analysis_helper",
        "design_note_zh": "北五环沿线交通与噪声影响参考缓冲（概念），非道路红线。",
        "area_sqm_declared": 176897.311
      },
      "geometry": {
        "type": "Polygon",
        "coordinates": [
          [
            [
              116.3427,
              40.0265
            ],
            [
              116.3553,
              40.0265
            ],
            [
              116.3551162,
              40.0231475
            ],
            [
              116.3538261,
              40.0231403
            ],
            [
              116.353956,
              40.0255094
            ],
            [
              116.3439412,
              40.0255094
            ],
            [
              116.3438228,
              40.0230841
            ],
            [
              116.342533,
              40.0230768
            ],
            [
              116.3427,
              40.0265
            ]
          ]
        ]
      }
    }
  ]
}
