{
  "type": "FeatureCollection",
  "name": "green_space_metabolism",
  "crs_note": "Coordinates in EPSG:4326; areas recomputed in EPSG:4548.",
  "features": [
    {
      "type": "Feature",
      "id": "GREEN-001",
      "properties": {
        "id": "GREEN-001",
        "layer": "GREEN_SPACE",
        "name_zh": "京张遗址公园活力绿脊（代谢主轴）",
        "name_en": "Jing-Zhang heritage green spine (metabolic axis)",
        "source_type": "agent_generated_design",
        "confidence": "medium",
        "geometry_role": "design_proposal",
        "area_sqm_declared": 1239320.397,
        "design_note_zh": "由铁路遗产廊道转译为南北贯通的公园绿脊，承载慢行、雨洪、展示与活动功能。"
      },
      "geometry": {
        "type": "MultiPolygon",
        "coordinates": [
          [
            [
              [
                116.3465196,
                40.0262225
              ],
              [
                116.3465535,
                40.0262786
              ],
              [
                116.3465943,
                40.0263319
              ],
              [
                116.3466418,
                40.0263819
              ],
              [
                116.3466954,
                40.026428
              ],
              [
                116.3467546,
                40.0264699
              ],
              [
                116.3468069,
                40.0265002
              ],
              [
                116.3477516,
                40.0265002
              ],
              [
                116.347795,
                40.0264757
              ],
              [
                116.3478551,
                40.0264345
              ],
              [
                116.3479095,
                40.026389
              ],
              [
                116.3479579,
                40.0263396
              ],
              [
                116.3479998,
                40.0262868
              ],
              [
                116.3480348,
                40.026231
              ],
              [
                116.3480624,
                40.0261729
              ],
              [
                116.3480825,
                40.026113
              ],
              [
                116.3480949,
                40.0260519
              ],
              [
                116.3480995,
                40.0259901
              ],
              [
                116.3481789,
                40.0176489
              ],
              [
                116.3465391,
                40.0176397
              ],
              [
                116.3464595,
                40.0259809
              ],
              [
                116.3464629,
                40.0260427
              ],
              [
                116.3464741,
                40.026104
              ],
              [
                116.3464931,
                40.0261641
              ],
              [
                116.3465196,
                40.0262225
              ]
            ]
          ],
          [
            [
              [
                116.3465563,
                40.0158386
              ],
              [
                116.348196,
                40.0158478
              ],
              [
                116.3483381,
                40.0009073
              ],
              [
                116.3466987,
                40.0008981
              ],
              [
                116.3465563,
                40.0158386
              ]
            ]
          ],
          [
            [
              [
                116.3467064,
                40.0000876
              ],
              [
                116.3483458,
                40.0000968
              ],
              [
                116.3484487,
                39.989271
              ],
              [
                116.3468096,
                39.9892618
              ],
              [
                116.3467064,
                40.0000876
              ]
            ]
          ],
          [
            [
              [
                116.3468242,
                39.9877308
              ],
              [
                116.3484632,
                39.98774
              ],
              [
                116.3486594,
                39.9670819
              ],
              [
                116.3470208,
                39.9670727
              ],
              [
                116.3468242,
                39.9877308
              ]
            ]
          ],
          [
            [
              [
                116.3470285,
                39.9662622
              ],
              [
                116.3486671,
                39.9662714
              ],
              [
                116.3488433,
                39.9476876
              ],
              [
                116.3472052,
                39.9476784
              ],
              [
                116.3470285,
                39.9662622
              ]
            ]
          ],
          [
            [
              [
                116.3472198,
                39.9461475
              ],
              [
                116.3488579,
                39.9461567
              ],
              [
                116.3488846,
                39.9433321
              ],
              [
                116.3472466,
                39.9433229
              ],
              [
                116.3472198,
                39.9461475
              ]
            ]
          ],
          [
            [
              [
                116.3489063,
                39.9393817
              ],
              [
                116.3488874,
                39.9393215
              ],
              [
                116.3488609,
                39.9392631
              ],
              [
                116.348827,
                39.939207
              ],
              [
                116.3487862,
                39.9391537
              ],
              [
                116.3487388,
                39.9391038
              ],
              [
                116.3486853,
                39.9390576
              ],
              [
                116.3486261,
                39.9390157
              ],
              [
                116.3485994,
                39.9390002
              ],
              [
                116.3476042,
                39.9390002
              ],
              [
                116.3475871,
                39.9390099
              ],
              [
                116.3475271,
                39.9390511
              ],
              [
                116.3474727,
                39.9390966
              ],
              [
                116.3474244,
                39.9391461
              ],
              [
                116.3473825,
                39.9391989
              ],
              [
                116.3473476,
                39.9392546
              ],
              [
                116.34732,
                39.9393127
              ],
              [
                116.3472999,
                39.9393726
              ],
              [
                116.3472875,
                39.9394337
              ],
              [
                116.347283,
                39.9394955
              ],
              [
                116.3472578,
                39.9421522
              ],
              [
                116.3488957,
                39.9421614
              ],
              [
                116.3489209,
                39.9395047
              ],
              [
                116.3489176,
                39.9394429
              ],
              [
                116.3489063,
                39.9393817
              ]
            ]
          ]
        ]
      }
    },
    {
      "type": "Feature",
      "id": "GREEN-002",
      "properties": {
        "id": "GREEN-002",
        "layer": "GREEN_SPACE",
        "name_zh": "北五环防护绿带",
        "name_en": "North Fifth-Ring protective green belt",
        "source_type": "agent_generated_design",
        "confidence": "medium",
        "geometry_role": "design_proposal",
        "area_sqm_declared": 210871.267,
        "design_note_zh": "沿北五环概念防护绿带，削减交通噪声并作为带状雨洪滞蓄空间（概念建议）。"
      },
      "geometry": {
        "type": "Polygon",
        "coordinates": [
          [
            [
              116.3481115,
              40.0247294
            ],
            [
              116.3464715,
              40.0247201
            ],
            [
              116.3453125,
              40.0247136
            ],
            [
              116.3426121,
              40.0246983
            ],
            [
              116.3426755,
              40.0259982
            ],
            [
              116.3427,
              40.0265
            ],
            [
              116.3452954,
              40.0265001
            ],
            [
              116.3483413,
              40.0265002
            ],
            [
              116.3513872,
              40.0265001
            ],
            [
              116.354433,
              40.0265
            ],
            [
              116.3553,
              40.0265
            ],
            [
              116.3552764,
              40.026069
            ],
            [
              116.3552725,
              40.025999
            ],
            [
              116.3552051,
              40.024769
            ],
            [
              116.3544494,
              40.0247648
            ],
            [
              116.3514038,
              40.0247478
            ],
            [
              116.3483581,
              40.0247307
            ],
            [
              116.3481115,
              40.0247294
            ]
          ]
        ]
      }
    },
    {
      "type": "Feature",
      "id": "GREEN-003",
      "properties": {
        "id": "GREEN-003",
        "layer": "GREEN_SPACE",
        "name_zh": "小月河场景赋能蓝绿指",
        "name_en": "Xiaoyuehe blue-green scenario finger",
        "source_type": "agent_generated_design",
        "confidence": "medium",
        "geometry_role": "design_proposal",
        "area_sqm_declared": 764263.029,
        "design_note_zh": "东侧小月河方向的蓝绿手指，承载场景测试与滨水慢行（概念建议，非河道蓝线）。"
      },
      "geometry": {
        "type": "Polygon",
        "coordinates": [
          [
            [
              116.3540984,
              39.9425958
            ],
            [
              116.3528114,
              39.9425886
            ],
            [
              116.3522074,
              40.0065894
            ],
            [
              116.3534956,
              40.0065966
            ],
            [
              116.3536004,
              39.995484
            ],
            [
              116.3533,
              39.99
            ],
            [
              116.3536991,
              39.9850132
            ],
            [
              116.3540984,
              39.9425958
            ]
          ]
        ]
      }
    },
    {
      "type": "Feature",
      "id": "GREEN-004",
      "properties": {
        "id": "GREEN-004",
        "layer": "GREEN_SPACE",
        "name_zh": "清河创新绿缘",
        "name_en": "Qinghe innovation green edge",
        "source_type": "agent_generated_design",
        "confidence": "medium",
        "geometry_role": "design_proposal",
        "area_sqm_declared": 267927.935,
        "design_note_zh": "众智园东侧清河方向绿缘，作为低碳创新交往界面（概念建议，非河道蓝线）。"
      },
      "geometry": {
        "type": "Polygon",
        "coordinates": [
          [
            [
              116.352652,
              40.0074925
            ],
            [
              116.3524766,
              40.0260533
            ],
            [
              116.3539994,
              40.0260618
            ],
            [
              116.3541744,
              40.007501
            ],
            [
              116.352652,
              40.0074925
            ]
          ]
        ]
      }
    },
    {
      "type": "Feature",
      "id": "GREEN-005",
      "properties": {
        "id": "GREEN-005",
        "layer": "GREEN_SPACE",
        "name_zh": "校区共享绿带",
        "name_en": "Campus sharing green belt",
        "source_type": "agent_generated_design",
        "confidence": "medium",
        "geometry_role": "design_proposal",
        "area_sqm_declared": 619041.336,
        "design_note_zh": "高校界面共享绿带，缝合校区与原点社区慢行系统（概念建议）。"
      },
      "geometry": {
        "type": "Polygon",
        "coordinates": [
          [
            [
              116.3415004,
              39.9956406
            ],
            [
              116.3417446,
              39.9994246
            ],
            [
              116.3421679,
              40.0059821
            ],
            [
              116.3421681,
              40.0059865
            ],
            [
              116.3422211,
              40.0070735
            ],
            [
              116.3450125,
              40.0070893
            ],
            [
              116.3451387,
              39.993878
            ],
            [
              116.3425628,
              39.9938634
            ],
            [
              116.3425169,
              39.9938614
            ],
            [
              116.3424715,
              39.993856
            ],
            [
              116.342427,
              39.9938472
            ],
            [
              116.3423838,
              39.993835
            ],
            [
              116.3423424,
              39.9938197
            ],
            [
              116.3423032,
              39.9938013
            ],
            [
              116.3422665,
              39.99378
            ],
            [
              116.3422326,
              39.9937561
            ],
            [
              116.342202,
              39.9937297
            ],
            [
              116.3421749,
              39.9937011
            ],
            [
              116.3421516,
              39.9936707
            ],
            [
              116.3421322,
              39.9936386
            ],
            [
              116.3421171,
              39.9936052
            ],
            [
              116.3421062,
              39.9935709
            ],
            [
              116.3420998,
              39.9935359
            ],
            [
              116.3420979,
              39.9935006
            ],
            [
              116.3421944,
              39.9834392
            ],
            [
              116.342197,
              39.9834039
            ],
            [
              116.3422041,
              39.983369
            ],
            [
              116.3422156,
              39.9833347
            ],
            [
              116.3422314,
              39.9833015
            ],
            [
              116.3422513,
              39.9832697
            ],
            [
              116.3422752,
              39.9832395
            ],
            [
              116.3423029,
              39.9832113
            ],
            [
              116.342334,
              39.9831852
            ],
            [
              116.3423683,
              39.9831617
            ],
            [
              116.3424054,
              39.9831408
            ],
            [
              116.342445,
              39.9831229
            ],
            [
              116.3424867,
              39.983108
            ],
            [
              116.3425301,
              39.9830964
            ],
            [
              116.3425747,
              39.983088
            ],
            [
              116.3426202,
              39.9830831
            ],
            [
              116.3426661,
              39.9830816
            ],
            [
              116.3452416,
              39.9830962
            ],
            [
              116.3452625,
              39.9809124
            ],
            [
              116.3405484,
              39.9808857
            ],
            [
              116.3415004,
              39.9956406
            ]
          ]
        ]
      }
    },
    {
      "type": "Feature",
      "id": "GREEN-006",
      "properties": {
        "id": "GREEN-006",
        "layer": "GREEN_SPACE",
        "name_zh": "社区口袋公园群",
        "name_en": "Community pocket park cluster",
        "source_type": "agent_generated_design",
        "confidence": "medium",
        "geometry_role": "design_proposal",
        "area_sqm_declared": 30974.762,
        "design_note_zh": "分布于居住带的小微公园，服务15分钟生活圈（概念建议）。"
      },
      "geometry": {
        "type": "MultiPolygon",
        "coordinates": [
          [
            [
              [
                116.3447097,
                39.9455602
              ],
              [
                116.3447157,
                39.9449298
              ],
              [
                116.3436626,
                39.9449238
              ],
              [
                116.3436566,
                39.9455542
              ],
              [
                116.3447097,
                39.9455602
              ]
            ]
          ],
          [
            [
              [
                116.3519684,
                39.9513199
              ],
              [
                116.3510323,
                39.9513147
              ],
              [
                116.3510272,
                39.951855
              ],
              [
                116.3519633,
                39.9518602
              ],
              [
                116.3519684,
                39.9513199
              ]
            ]
          ],
          [
            [
              [
                116.3443834,
                39.9919724
              ],
              [
                116.3433297,
                39.9919664
              ],
              [
                116.3433241,
                39.9925518
              ],
              [
                116.3443778,
                39.9925578
              ],
              [
                116.3443834,
                39.9919724
              ]
            ]
          ],
          [
            [
              [
                116.3517284,
                40.0046054
              ],
              [
                116.3517335,
                40.004065
              ],
              [
                116.3507381,
                40.0040595
              ],
              [
                116.350733,
                40.0045998
              ],
              [
                116.3517284,
                40.0046054
              ]
            ]
          ],
          [
            [
              [
                116.3513582,
                40.012792
              ],
              [
                116.3504798,
                40.0127871
              ],
              [
                116.3504751,
                40.0132824
              ],
              [
                116.3513535,
                40.0132873
              ],
              [
                116.3513582,
                40.012792
              ]
            ]
          ],
          [
            [
              [
                116.3443088,
                40.0181335
              ],
              [
                116.3433718,
                40.0181282
              ],
              [
                116.3433666,
                40.0186685
              ],
              [
                116.3443036,
                40.0186738
              ],
              [
                116.3443088,
                40.0181335
              ]
            ]
          ]
        ]
      }
    }
  ]
}
