{
  "type": "FeatureCollection",
  "name": "land_use_metabolism_partition",
  "crs_note": "Coordinates in EPSG:4326; areas recomputed in EPSG:4548.",
  "features": [
    {
      "type": "Feature",
      "id": "LU-001",
      "properties": {
        "id": "LU-001",
        "layer": "LAND_USE",
        "land_use_code": "05",
        "name_zh": "商业服务业用地",
        "name_en": "Commercial and service land",
        "source_type": "agent_generated_design",
        "confidence": "medium",
        "geometry_role": "design_proposal",
        "area_sqm_declared": 1024143.326,
        "design_note_zh": "流动之城概念方案生成的用地分区；临时边界内有效，官方红线发布后复算。"
      },
      "geometry": {
        "type": "MultiPolygon",
        "coordinates": [
          [
            [
              [
                116.3430629,
                39.9416332
              ],
              [
                116.3461049,
                39.9416504
              ],
              [
                116.3472625,
                39.9416569
              ],
              [
                116.3489004,
                39.9416661
              ],
              [
                116.3491468,
                39.9416675
              ],
              [
                116.3491366,
                39.9427482
              ],
              [
                116.349125,
                39.9439672
              ],
              [
                116.3488786,
                39.9439658
              ],
              [
                116.3488543,
                39.9465292
              ],
              [
                116.3488226,
                39.9498785
              ],
              [
                116.349069,
                39.9498799
              ],
              [
                116.3490649,
                39.9503129
              ],
              [
                116.349029,
                39.9540953
              ],
              [
                116.3520715,
                39.9541124
              ],
              [
                116.3521072,
                39.95033
              ],
              [
                116.3521113,
                39.9498969
              ],
              [
                116.3521429,
                39.9465476
              ],
              [
                116.352167,
                39.9439842
              ],
              [
                116.3521785,
                39.9427652
              ],
              [
                116.3552205,
                39.9427822
              ],
              [
                116.3552091,
                39.9440012
              ],
              [
                116.355185,
                39.9465646
              ],
              [
                116.3551536,
                39.9499139
              ],
              [
                116.3551495,
                39.950347
              ],
              [
                116.355114,
                39.9541293
              ],
              [
                116.3553,
                39.9541304
              ],
              [
                116.3553,
                39.9503478
              ],
              [
                116.3553,
                39.9499147
              ],
              [
                116.3553,
                39.9440017
              ],
              [
                116.3553,
                39.9427826
              ],
              [
                116.3553,
                39.939
              ],
              [
                116.352214,
                39.9390002
              ],
              [
                116.3461301,
                39.9390002
              ],
              [
                116.3407,
                39.939
              ],
              [
                116.3406273,
                39.9416193
              ],
              [
                116.3430629,
                39.9416332
              ]
            ]
          ],
          [
            [
              [
                116.3430164,
                39.9464962
              ],
              [
                116.3429844,
                39.9498456
              ],
              [
                116.3460267,
                39.9498628
              ],
              [
                116.3471844,
                39.9498693
              ],
              [
                116.3472163,
                39.94652
              ],
              [
                116.3472406,
                39.9439566
              ],
              [
                116.346083,
                39.94395
              ],
              [
                116.3430409,
                39.9439328
              ],
              [
                116.3430164,
                39.9464962
              ]
            ]
          ]
        ]
      }
    },
    {
      "type": "Feature",
      "id": "LU-002",
      "properties": {
        "id": "LU-002",
        "layer": "LAND_USE",
        "land_use_code": "0701",
        "name_zh": "城镇住宅用地",
        "name_en": "Urban residential land",
        "source_type": "agent_generated_design",
        "confidence": "medium",
        "geometry_role": "design_proposal",
        "area_sqm_declared": 4734648.985,
        "design_note_zh": "流动之城概念方案生成的用地分区；临时边界内有效，官方红线发布后复算。"
      },
      "geometry": {
        "type": "MultiPolygon",
        "coordinates": [
          [
            [
              [
                116.3405973,
                39.9426999
              ],
              [
                116.3405634,
                39.9439188
              ],
              [
                116.3402822,
                39.9540459
              ],
              [
                116.339967,
                39.9653919
              ],
              [
                116.3398619,
                39.9691738
              ],
              [
                116.3397,
                39.975
              ],
              [
                116.3398121,
                39.9767387
              ],
              [
                116.3400562,
                39.9805227
              ],
              [
                116.3426905,
                39.9805376
              ],
              [
                116.3457342,
                39.9805549
              ],
              [
                116.3457065,
                39.9834591
              ],
              [
                116.3468648,
                39.9834656
              ],
              [
                116.3468924,
                39.9805614
              ],
              [
                116.3469284,
                39.976779
              ],
              [
                116.3469644,
                39.9729966
              ],
              [
                116.3470004,
                39.9692143
              ],
              [
                116.3470364,
                39.9654319
              ],
              [
                116.3470724,
                39.9616495
              ],
              [
                116.3471084,
                39.9578671
              ],
              [
                116.3471443,
                39.9540847
              ],
              [
                116.3471803,
                39.9503024
              ],
              [
                116.3471844,
                39.9498693
              ],
              [
                116.3460267,
                39.9498628
              ],
              [
                116.3429844,
                39.9498456
              ],
              [
                116.3430164,
                39.9464962
              ],
              [
                116.3430409,
                39.9439328
              ],
              [
                116.346083,
                39.94395
              ],
              [
                116.3472406,
                39.9439566
              ],
              [
                116.3472522,
                39.9427376
              ],
              [
                116.3472625,
                39.9416569
              ],
              [
                116.3461049,
                39.9416504
              ],
              [
                116.3430629,
                39.9416332
              ],
              [
                116.3406273,
                39.9416193
              ],
              [
                116.3405973,
                39.9426999
              ]
            ]
          ],
          [
            [
              [
                116.3466362,
                40.0074587
              ],
              [
                116.3466402,
                40.0070379
              ],
              [
                116.3466762,
                40.0032556
              ],
              [
                116.3467123,
                39.9994732
              ],
              [
                116.3467483,
                39.9956909
              ],
              [
                116.3467689,
                39.993527
              ],
              [
                116.3456105,
                39.9935204
              ],
              [
                116.3455898,
                39.9956843
              ],
              [
                116.3455537,
                39.9994667
              ],
              [
                116.3455176,
                40.003249
              ],
              [
                116.3454815,
                40.0070314
              ],
              [
                116.3454775,
                40.0074522
              ],
              [
                116.3466362,
                40.0074587
              ]
            ]
          ],
          [
            [
              [
                116.342364,
                40.0145788
              ],
              [
                116.3424003,
                40.0107965
              ],
              [
                116.3424326,
                40.0074349
              ],
              [
                116.3417698,
                40.0074312
              ],
              [
                116.3426121,
                40.0246983
              ],
              [
                116.3453125,
                40.0247136
              ],
              [
                116.3453369,
                40.0221608
              ],
              [
                116.3453731,
                40.0183784
              ],
              [
                116.3423277,
                40.0183612
              ],
              [
                116.342364,
                40.0145788
              ]
            ]
          ],
          [
            [
              [
                116.3491366,
                39.9427482
              ],
              [
                116.3488902,
                39.9427468
              ],
              [
                116.3488786,
                39.9439658
              ],
              [
                116.349125,
                39.9439672
              ],
              [
                116.3491366,
                39.9427482
              ]
            ]
          ],
          [
            [
              [
                116.3487467,
                39.9578763
              ],
              [
                116.3487108,
                39.9616587
              ],
              [
                116.3486749,
                39.9654411
              ],
              [
                116.348639,
                39.9692235
              ],
              [
                116.3486031,
                39.9730059
              ],
              [
                116.3485672,
                39.9767882
              ],
              [
                116.3485313,
                39.9805706
              ],
              [
                116.3485037,
                39.9834748
              ],
              [
                116.3484954,
                39.984353
              ],
              [
                116.3484595,
                39.9881354
              ],
              [
                116.3484235,
                39.9919177
              ],
              [
                116.3484081,
                39.9935362
              ],
              [
                116.3483876,
                39.9957001
              ],
              [
                116.3483516,
                39.9994824
              ],
              [
                116.3483157,
                40.0032648
              ],
              [
                116.3482797,
                40.0070472
              ],
              [
                116.3482757,
                40.007468
              ],
              [
                116.3485223,
                40.0074693
              ],
              [
                116.3515672,
                40.0074864
              ],
              [
                116.3515711,
                40.0070656
              ],
              [
                116.3516069,
                40.0032833
              ],
              [
                116.3516427,
                39.9995009
              ],
              [
                116.3516785,
                39.9957185
              ],
              [
                116.3516989,
                39.9935547
              ],
              [
                116.3534952,
                39.9935647
              ],
              [
                116.3534066,
                39.9919456
              ],
              [
                116.3533,
                39.99
              ],
              [
                116.3537495,
                39.9843824
              ],
              [
                116.3517857,
                39.9843714
              ],
              [
                116.351794,
                39.9834933
              ],
              [
                116.3518215,
                39.9805891
              ],
              [
                116.3518572,
                39.9768067
              ],
              [
                116.3518929,
                39.9730243
              ],
              [
                116.3519287,
                39.9692419
              ],
              [
                116.3519644,
                39.9654595
              ],
              [
                116.3520001,
                39.9616772
              ],
              [
                116.3520358,
                39.9578948
              ],
              [
                116.3520715,
                39.9541124
              ],
              [
                116.349029,
                39.9540953
              ],
              [
                116.3490649,
                39.9503129
              ],
              [
                116.349069,
                39.9498799
              ],
              [
                116.3488226,
                39.9498785
              ],
              [
                116.3488185,
                39.9503116
              ],
              [
                116.3487826,
                39.954094
              ],
              [
                116.3487467,
                39.9578763
              ]
            ]
          ],
          [
            [
              [
                116.3549735,
                39.9690829
              ],
              [
                116.3553,
                39.965
              ],
              [
                116.3553,
                39.9616956
              ],
              [
                116.3553,
                39.9541304
              ],
              [
                116.355114,
                39.9541293
              ],
              [
                116.3550785,
                39.9579117
              ],
              [
                116.3550429,
                39.9616941
              ],
              [
                116.3550074,
                39.9654765
              ],
              [
                116.3549735,
                39.9690829
              ]
            ]
          ],
          [
            [
              [
                116.3544494,
                40.0247648
              ],
              [
                116.3552051,
                40.024769
              ],
              [
                116.3550651,
                40.0222153
              ],
              [
                116.354443,
                40.0108642
              ],
              [
                116.3515353,
                40.010848
              ],
              [
                116.3514995,
                40.0146303
              ],
              [
                116.3545447,
                40.0146473
              ],
              [
                116.3545091,
                40.0184297
              ],
              [
                116.3544734,
                40.022212
              ],
              [
                116.3544494,
                40.0247648
              ]
            ]
          ]
        ]
      }
    },
    {
      "type": "Feature",
      "id": "LU-003",
      "properties": {
        "id": "LU-003",
        "layer": "LAND_USE",
        "land_use_code": "0802",
        "name_zh": "科研用地",
        "name_en": "AI research and development land",
        "source_type": "agent_generated_design",
        "confidence": "medium",
        "geometry_role": "design_proposal",
        "area_sqm_declared": 1286716.962,
        "design_note_zh": "流动之城概念方案生成的用地分区；临时边界内有效，官方红线发布后复算。"
      },
      "geometry": {
        "type": "MultiPolygon",
        "coordinates": [
          [
            [
              [
                116.3426627,
                39.9834418
              ],
              [
                116.3426543,
                39.98432
              ],
              [
                116.342618,
                39.9881024
              ],
              [
                116.3425818,
                39.9918847
              ],
              [
                116.3425662,
                39.9935032
              ],
              [
                116.3456105,
                39.9935204
              ],
              [
                116.3467689,
                39.993527
              ],
              [
                116.3467844,
                39.9919085
              ],
              [
                116.3468204,
                39.9881261
              ],
              [
                116.3468564,
                39.9843438
              ],
              [
                116.3468648,
                39.9834656
              ],
              [
                116.3457065,
                39.9834591
              ],
              [
                116.3426627,
                39.9834418
              ]
            ]
          ],
          [
            [
              [
                116.3424326,
                40.0074349
              ],
              [
                116.3424003,
                40.0107965
              ],
              [
                116.342364,
                40.0145788
              ],
              [
                116.3423277,
                40.0183612
              ],
              [
                116.3453731,
                40.0183784
              ],
              [
                116.3454092,
                40.0145961
              ],
              [
                116.346568,
                40.0146026
              ],
              [
                116.3466041,
                40.0108203
              ],
              [
                116.3466362,
                40.0074587
              ],
              [
                116.3454775,
                40.0074522
              ],
              [
                116.3424326,
                40.0074349
              ]
            ]
          ],
          [
            [
              [
                116.3485223,
                40.0074693
              ],
              [
                116.3482757,
                40.007468
              ],
              [
                116.3482437,
                40.0108295
              ],
              [
                116.3482077,
                40.0146119
              ],
              [
                116.3484544,
                40.0146132
              ],
              [
                116.3484184,
                40.0183956
              ],
              [
                116.3481718,
                40.0183942
              ],
              [
                116.3481358,
                40.0221765
              ],
              [
                116.3483824,
                40.0221779
              ],
              [
                116.3514279,
                40.022195
              ],
              [
                116.3514637,
                40.0184127
              ],
              [
                116.3514995,
                40.0146303
              ],
              [
                116.3515353,
                40.010848
              ],
              [
                116.3515672,
                40.0074864
              ],
              [
                116.3485223,
                40.0074693
              ]
            ]
          ],
          [
            [
              [
                116.3453731,
                40.0183784
              ],
              [
                116.3453369,
                40.0221608
              ],
              [
                116.3464959,
                40.0221673
              ],
              [
                116.346532,
                40.018385
              ],
              [
                116.3453731,
                40.0183784
              ]
            ]
          ]
        ]
      }
    },
    {
      "type": "Feature",
      "id": "LU-004",
      "properties": {
        "id": "LU-004",
        "layer": "LAND_USE",
        "land_use_code": "0804",
        "name_zh": "教育用地",
        "name_en": "Education / campus-interface land",
        "source_type": "agent_generated_design",
        "confidence": "medium",
        "geometry_role": "design_proposal",
        "area_sqm_declared": 903924.775,
        "design_note_zh": "流动之城概念方案生成的用地分区；临时边界内有效，官方红线发布后复算。"
      },
      "geometry": {
        "type": "Polygon",
        "coordinates": [
          [
            [
              116.3426905,
              39.9805376
            ],
            [
              116.3400562,
              39.9805227
            ],
            [
              116.3410326,
              39.9956585
            ],
            [
              116.3412768,
              39.9994424
            ],
            [
              116.3417,
              40.006
            ],
            [
              116.3417698,
              40.0074312
            ],
            [
              116.3424326,
              40.0074349
            ],
            [
              116.3454775,
              40.0074522
            ],
            [
              116.3454815,
              40.0070314
            ],
            [
              116.3455176,
              40.003249
            ],
            [
              116.3455537,
              39.9994667
            ],
            [
              116.3455898,
              39.9956843
            ],
            [
              116.3456105,
              39.9935204
            ],
            [
              116.3425662,
              39.9935032
            ],
            [
              116.3425818,
              39.9918847
            ],
            [
              116.342618,
              39.9881024
            ],
            [
              116.3426543,
              39.98432
            ],
            [
              116.3426627,
              39.9834418
            ],
            [
              116.3457065,
              39.9834591
            ],
            [
              116.3457342,
              39.9805549
            ],
            [
              116.3426905,
              39.9805376
            ]
          ]
        ]
      }
    },
    {
      "type": "Feature",
      "id": "LU-005",
      "properties": {
        "id": "LU-005",
        "layer": "LAND_USE",
        "land_use_code": "1207",
        "name_zh": "城镇村道路用地",
        "name_en": "Transport hub land",
        "source_type": "agent_generated_design",
        "confidence": "medium",
        "geometry_role": "design_proposal",
        "area_sqm_declared": 170702.437,
        "design_note_zh": "流动之城概念方案生成的用地分区；临时边界内有效，官方红线发布后复算。"
      },
      "geometry": {
        "type": "Polygon",
        "coordinates": [
          [
            [
              116.3521429,
              39.9465476
            ],
            [
              116.3521113,
              39.9498969
            ],
            [
              116.3551536,
              39.9499139
            ],
            [
              116.355185,
              39.9465646
            ],
            [
              116.3552091,
              39.9440012
            ],
            [
              116.352167,
              39.9439842
            ],
            [
              116.3521429,
              39.9465476
            ]
          ]
        ]
      }
    },
    {
      "type": "Feature",
      "id": "LU-006",
      "properties": {
        "id": "LU-006",
        "layer": "LAND_USE",
        "land_use_code": "1401",
        "name_zh": "公园绿地",
        "name_en": "Park green space",
        "source_type": "agent_generated_design",
        "confidence": "medium",
        "geometry_role": "design_proposal",
        "area_sqm_declared": 2845569.77,
        "design_note_zh": "流动之城概念方案生成的用地分区；临时边界内有效，官方红线发布后复算。"
      },
      "geometry": {
        "type": "MultiPolygon",
        "coordinates": [
          [
            [
              [
                116.3471084,
                39.9578671
              ],
              [
                116.3470724,
                39.9616495
              ],
              [
                116.3470364,
                39.9654319
              ],
              [
                116.3470004,
                39.9692143
              ],
              [
                116.3469644,
                39.9729966
              ],
              [
                116.3469284,
                39.976779
              ],
              [
                116.3468924,
                39.9805614
              ],
              [
                116.3468648,
                39.9834656
              ],
              [
                116.3468564,
                39.9843438
              ],
              [
                116.3468204,
                39.9881261
              ],
              [
                116.3467844,
                39.9919085
              ],
              [
                116.3467689,
                39.993527
              ],
              [
                116.3467483,
                39.9956909
              ],
              [
                116.3467123,
                39.9994732
              ],
              [
                116.3466762,
                40.0032556
              ],
              [
                116.3466402,
                40.0070379
              ],
              [
                116.3466362,
                40.0074587
              ],
              [
                116.3466041,
                40.0108203
              ],
              [
                116.346568,
                40.0146026
              ],
              [
                116.3482077,
                40.0146119
              ],
              [
                116.3482437,
                40.0108295
              ],
              [
                116.3482757,
                40.007468
              ],
              [
                116.3482797,
                40.0070472
              ],
              [
                116.3483157,
                40.0032648
              ],
              [
                116.3483516,
                39.9994824
              ],
              [
                116.3483876,
                39.9957001
              ],
              [
                116.3484081,
                39.9935362
              ],
              [
                116.3484235,
                39.9919177
              ],
              [
                116.3484595,
                39.9881354
              ],
              [
                116.3484954,
                39.984353
              ],
              [
                116.3485037,
                39.9834748
              ],
              [
                116.3485313,
                39.9805706
              ],
              [
                116.3485672,
                39.9767882
              ],
              [
                116.3486031,
                39.9730059
              ],
              [
                116.348639,
                39.9692235
              ],
              [
                116.3486749,
                39.9654411
              ],
              [
                116.3487108,
                39.9616587
              ],
              [
                116.3487467,
                39.9578763
              ],
              [
                116.3487826,
                39.954094
              ],
              [
                116.3488185,
                39.9503116
              ],
              [
                116.3488226,
                39.9498785
              ],
              [
                116.3488543,
                39.9465292
              ],
              [
                116.3488786,
                39.9439658
              ],
              [
                116.3488902,
                39.9427468
              ],
              [
                116.3472522,
                39.9427376
              ],
              [
                116.3472406,
                39.9439566
              ],
              [
                116.3472163,
                39.94652
              ],
              [
                116.3471844,
                39.9498693
              ],
              [
                116.3471803,
                39.9503024
              ],
              [
                116.3471443,
                39.9540847
              ],
              [
                116.3471084,
                39.9578671
              ]
            ]
          ],
          [
            [
              [
                116.3481718,
                40.0183942
              ],
              [
                116.346532,
                40.018385
              ],
              [
                116.3464959,
                40.0221673
              ],
              [
                116.3464715,
                40.0247201
              ],
              [
                116.3481115,
                40.0247294
              ],
              [
                116.3481358,
                40.0221765
              ],
              [
                116.3481718,
                40.0183942
              ]
            ]
          ],
          [
            [
              [
                116.3537495,
                39.9843824
              ],
              [
                116.3540521,
                39.9806015
              ],
              [
                116.3543545,
                39.9768206
              ],
              [
                116.354657,
                39.9730397
              ],
              [
                116.3549735,
                39.9690829
              ],
              [
                116.3550074,
                39.9654765
              ],
              [
                116.3550429,
                39.9616941
              ],
              [
                116.3550785,
                39.9579117
              ],
              [
                116.355114,
                39.9541293
              ],
              [
                116.3551495,
                39.950347
              ],
              [
                116.3551536,
                39.9499139
              ],
              [
                116.3521113,
                39.9498969
              ],
              [
                116.3521072,
                39.95033
              ],
              [
                116.3520715,
                39.9541124
              ],
              [
                116.3520358,
                39.9578948
              ],
              [
                116.3520001,
                39.9616772
              ],
              [
                116.3519644,
                39.9654595
              ],
              [
                116.3519287,
                39.9692419
              ],
              [
                116.3518929,
                39.9730243
              ],
              [
                116.3518572,
                39.9768067
              ],
              [
                116.3518215,
                39.9805891
              ],
              [
                116.351794,
                39.9834933
              ],
              [
                116.3517857,
                39.9843714
              ],
              [
                116.3537495,
                39.9843824
              ]
            ]
          ],
          [
            [
              [
                116.3516989,
                39.9935547
              ],
              [
                116.3516785,
                39.9957185
              ],
              [
                116.3516427,
                39.9995009
              ],
              [
                116.3516069,
                40.0032833
              ],
              [
                116.3515711,
                40.0070656
              ],
              [
                116.3515672,
                40.0074864
              ],
              [
                116.3515353,
                40.010848
              ],
              [
                116.354443,
                40.0108642
              ],
              [
                116.3542357,
                40.0070805
              ],
              [
                116.3536138,
                39.9957293
              ],
              [
                116.3534952,
                39.9935647
              ],
              [
                116.3516989,
                39.9935547
              ]
            ]
          ],
          [
            [
              [
                116.352167,
                39.9439842
              ],
              [
                116.3552091,
                39.9440012
              ],
              [
                116.3552205,
                39.9427822
              ],
              [
                116.3521785,
                39.9427652
              ],
              [
                116.352167,
                39.9439842
              ]
            ]
          ],
          [
            [
              [
                116.3544734,
                40.022212
              ],
              [
                116.3545091,
                40.0184297
              ],
              [
                116.3545447,
                40.0146473
              ],
              [
                116.3514995,
                40.0146303
              ],
              [
                116.3514637,
                40.0184127
              ],
              [
                116.3514279,
                40.022195
              ],
              [
                116.3514038,
                40.0247478
              ],
              [
                116.3544494,
                40.0247648
              ],
              [
                116.3544734,
                40.022212
              ]
            ]
          ]
        ]
      }
    },
    {
      "type": "Feature",
      "id": "LU-007",
      "properties": {
        "id": "LU-007",
        "layer": "LAND_USE",
        "land_use_code": "1402",
        "name_zh": "防护绿地",
        "name_en": "Protective green space",
        "source_type": "agent_generated_design",
        "confidence": "medium",
        "geometry_role": "design_proposal",
        "area_sqm_declared": 210871.267,
        "design_note_zh": "流动之城概念方案生成的用地分区；临时边界内有效，官方红线发布后复算。"
      },
      "geometry": {
        "type": "Polygon",
        "coordinates": [
          [
            [
              116.3481115,
              40.0247294
            ],
            [
              116.3464715,
              40.0247201
            ],
            [
              116.3453125,
              40.0247136
            ],
            [
              116.3426121,
              40.0246983
            ],
            [
              116.3426755,
              40.0259982
            ],
            [
              116.3427,
              40.0265
            ],
            [
              116.3452954,
              40.0265001
            ],
            [
              116.3483413,
              40.0265002
            ],
            [
              116.3513872,
              40.0265001
            ],
            [
              116.354433,
              40.0265
            ],
            [
              116.3553,
              40.0265
            ],
            [
              116.3552764,
              40.026069
            ],
            [
              116.3552725,
              40.025999
            ],
            [
              116.3552051,
              40.024769
            ],
            [
              116.3544494,
              40.0247648
            ],
            [
              116.3514038,
              40.0247478
            ],
            [
              116.3483581,
              40.0247307
            ],
            [
              116.3481115,
              40.0247294
            ]
          ]
        ]
      }
    },
    {
      "type": "Feature",
      "id": "LU-008",
      "properties": {
        "id": "LU-008",
        "layer": "LAND_USE",
        "land_use_code": "1403",
        "name_zh": "广场用地",
        "name_en": "Plaza and civic square land",
        "source_type": "agent_generated_design",
        "confidence": "medium",
        "geometry_role": "design_proposal",
        "area_sqm_declared": 128527.308,
        "design_note_zh": "流动之城概念方案生成的用地分区；临时边界内有效，官方红线发布后复算。"
      },
      "geometry": {
        "type": "MultiPolygon",
        "coordinates": [
          [
            [
              [
                116.3488902,
                39.9427468
              ],
              [
                116.3491366,
                39.9427482
              ],
              [
                116.3491468,
                39.9416675
              ],
              [
                116.3489004,
                39.9416661
              ],
              [
                116.3472625,
                39.9416569
              ],
              [
                116.3472522,
                39.9427376
              ],
              [
                116.3488902,
                39.9427468
              ]
            ]
          ],
          [
            [
              [
                116.346532,
                40.018385
              ],
              [
                116.3481718,
                40.0183942
              ],
              [
                116.3484184,
                40.0183956
              ],
              [
                116.3484544,
                40.0146132
              ],
              [
                116.3482077,
                40.0146119
              ],
              [
                116.346568,
                40.0146026
              ],
              [
                116.3454092,
                40.0145961
              ],
              [
                116.3453731,
                40.0183784
              ],
              [
                116.346532,
                40.018385
              ]
            ]
          ]
        ]
      }
    },
    {
      "type": "Feature",
      "id": "LU-009",
      "properties": {
        "id": "LU-009",
        "layer": "LAND_USE",
        "land_use_code": "16",
        "name_zh": "留白用地",
        "name_en": "Strategic reserve (blank) land",
        "source_type": "agent_generated_design",
        "confidence": "medium",
        "geometry_role": "design_proposal",
        "area_sqm_declared": 107718.11,
        "design_note_zh": "流动之城概念方案生成的用地分区；临时边界内有效，官方红线发布后复算。"
      },
      "geometry": {
        "type": "MultiPolygon",
        "coordinates": [
          [
            [
              [
                116.3453125,
                40.0247136
              ],
              [
                116.3464715,
                40.0247201
              ],
              [
                116.3464959,
                40.0221673
              ],
              [
                116.3453369,
                40.0221608
              ],
              [
                116.3453125,
                40.0247136
              ]
            ]
          ],
          [
            [
              [
                116.3483581,
                40.0247307
              ],
              [
                116.3514038,
                40.0247478
              ],
              [
                116.3514279,
                40.022195
              ],
              [
                116.3483824,
                40.0221779
              ],
              [
                116.3481358,
                40.0221765
              ],
              [
                116.3481115,
                40.0247294
              ],
              [
                116.3483581,
                40.0247307
              ]
            ]
          ]
        ]
      }
    }
  ]
}
