{
  "type": "FeatureCollection",
  "name": "phasing_metabolism",
  "crs_note": "Coordinates in EPSG:4326; areas recomputed in EPSG:4548.",
  "features": [
    {
      "type": "Feature",
      "id": "PHASE-001",
      "properties": {
        "id": "PHASE-001",
        "layer": "PHASE",
        "name_zh": "近期启动区（2026—2028）",
        "name_en": "Near-term start zone (2026-2028)",
        "source_type": "agent_generated_design",
        "confidence": "low",
        "geometry_role": "design_proposal",
        "area_sqm_declared": 1331449.021,
        "design_note_zh": "大钟寺站城一体、南段绿脊与南门门户先行示范；以轻量设施与运营活动启动。"
      },
      "geometry": {
        "type": "Polygon",
        "coordinates": [
          [
            [
              116.3489257,
              39.9390002
            ],
            [
              116.3472877,
              39.9390002
            ],
            [
              116.3472578,
              39.9421522
            ],
            [
              116.3470238,
              39.9421509
            ],
            [
              116.3470139,
              39.9431896
            ],
            [
              116.3420001,
              39.9431895
            ],
            [
              116.3418969,
              39.9431934
            ],
            [
              116.3417946,
              39.943205
            ],
            [
              116.3416944,
              39.9432244
            ],
            [
              116.3415971,
              39.9432511
            ],
            [
              116.3415037,
              39.9432852
            ],
            [
              116.341415,
              39.943326
            ],
            [
              116.341332,
              39.9433734
            ],
            [
              116.3412554,
              39.9434268
            ],
            [
              116.341186,
              39.9434858
            ],
            [
              116.3411245,
              39.9435497
            ],
            [
              116.3410713,
              39.9436179
            ],
            [
              116.3410271,
              39.9436898
            ],
            [
              116.3409923,
              39.9437647
            ],
            [
              116.3409672,
              39.9438419
            ],
            [
              116.340952,
              39.9439205
            ],
            [
              116.340947,
              39.944
            ],
            [
              116.3409469,
              39.94984
            ],
            [
              116.3409519,
              39.9499194
            ],
            [
              116.3409671,
              39.9499981
            ],
            [
              116.3409922,
              39.9500753
            ],
            [
              116.341027,
              39.9501502
            ],
            [
              116.3410712,
              39.9502221
            ],
            [
              116.3411243,
              39.9502903
            ],
            [
              116.3411859,
              39.9503542
            ],
            [
              116.3412553,
              39.9504131
            ],
            [
              116.3413319,
              39.9504665
            ],
            [
              116.3414149,
              39.9505139
            ],
            [
              116.3415035,
              39.9505548
            ],
            [
              116.3415969,
              39.9505888
            ],
            [
              116.3416942,
              39.9506156
            ],
            [
              116.3417945,
              39.9506349
            ],
            [
              116.3418967,
              39.9506466
            ],
            [
              116.3419999,
              39.9506505
            ],
            [
              116.347177,
              39.9506507
            ],
            [
              116.3470247,
              39.9666675
            ],
            [
              116.3486632,
              39.9666767
            ],
            [
              116.3488153,
              39.9506507
            ],
            [
              116.3550001,
              39.9506505
            ],
            [
              116.3551033,
              39.9506466
            ],
            [
              116.3552055,
              39.950635
            ],
            [
              116.3553,
              39.9506167
            ],
            [
              116.3553,
              39.9432233
            ],
            [
              116.3552054,
              39.943205
            ],
            [
              116.3551031,
              39.9431934
            ],
            [
              116.3549999,
              39.9431895
            ],
            [
              116.34912,
              39.9431896
            ],
            [
              116.3491297,
              39.9421627
            ],
            [
              116.3488957,
              39.9421614
            ],
            [
              116.3489257,
              39.9390002
            ]
          ]
        ]
      }
    },
    {
      "type": "Feature",
      "id": "PHASE-002",
      "properties": {
        "id": "PHASE-002",
        "layer": "PHASE",
        "name_zh": "中期拓展区（2028—2031）",
        "name_en": "Mid-term expansion zone (2028-2031)",
        "source_type": "agent_generated_design",
        "confidence": "low",
        "geometry_role": "design_proposal",
        "area_sqm_declared": 2460405.188,
        "design_note_zh": "众智园全栈加速区与北段绿脊建设，衔接清河界面。"
      },
      "geometry": {
        "type": "Polygon",
        "coordinates": [
          [
            [
              116.3457696,
              40.0000823
            ],
            [
              116.3457619,
              40.0008928
            ],
            [
              116.3466987,
              40.0008981
            ],
            [
              116.3466435,
              40.0066896
            ],
            [
              116.3430001,
              40.0066895
            ],
            [
              116.3428968,
              40.0066934
            ],
            [
              116.3427944,
              40.006705
            ],
            [
              116.3426941,
              40.0067244
            ],
            [
              116.3425967,
              40.0067512
            ],
            [
              116.3425032,
              40.0067852
            ],
            [
              116.3424145,
              40.0068261
            ],
            [
              116.3423314,
              40.0068734
            ],
            [
              116.3422547,
              40.0069269
            ],
            [
              116.3421853,
              40.0069858
            ],
            [
              116.3421236,
              40.0070497
            ],
            [
              116.3420705,
              40.0071179
            ],
            [
              116.3420262,
              40.0071898
            ],
            [
              116.3419914,
              40.0072647
            ],
            [
              116.3419662,
              40.0073419
            ],
            [
              116.3419511,
              40.0074205
            ],
            [
              116.341946,
              40.0075
            ],
            [
              116.3419459,
              40.0110427
            ],
            [
              116.3427,
              40.0265
            ],
            [
              116.3548287,
              40.0265
            ],
            [
              116.3548766,
              40.0264503
            ],
            [
              116.3549298,
              40.0263821
            ],
            [
              116.3549741,
              40.0263102
            ],
            [
              116.3550089,
              40.0262353
            ],
            [
              116.355034,
              40.0261581
            ],
            [
              116.3550492,
              40.0260794
            ],
            [
              116.3550543,
              40.026
            ],
            [
              116.3550542,
              40.0220168
            ],
            [
              116.3542152,
              40.0067069
            ],
            [
              116.3542056,
              40.006705
            ],
            [
              116.3541032,
              40.0066934
            ],
            [
              116.3539999,
              40.0066895
            ],
            [
              116.3482831,
              40.0066896
            ],
            [
              116.3483381,
              40.0009073
            ],
            [
              116.3492749,
              40.0009126
            ],
            [
              116.3492826,
              40.0001021
            ],
            [
              116.3457696,
              40.0000823
            ]
          ]
        ]
      }
    },
    {
      "type": "Feature",
      "id": "PHASE-003",
      "properties": {
        "id": "PHASE-003",
        "layer": "PHASE",
        "name_zh": "长期成熟区（2031—2035+）",
        "name_en": "Long-term maturation zone (2031-2035+)",
        "source_type": "agent_generated_design",
        "confidence": "low",
        "geometry_role": "design_proposal",
        "area_sqm_declared": 7620971.176,
        "design_note_zh": "两翼场景带、全域代谢网络与留白用地活化；待正式控规与权属条件成熟。"
      },
      "geometry": {
        "type": "Polygon",
        "coordinates": [
          [
            [
              116.3553,
              40.0265
            ],
            [
              116.3533,
              39.99
            ],
            [
              116.3553,
              39.965
            ],
            [
              116.3553,
              39.939
            ],
            [
              116.3407,
              39.939
            ],
            [
              116.3397,
              39.975
            ],
            [
              116.3417,
              40.006
            ],
            [
              116.3427,
              40.0265
            ],
            [
              116.3553,
              40.0265
            ]
          ],
          [
            [
              116.3419459,
              40.0110427
            ],
            [
              116.341946,
              40.0075
            ],
            [
              116.3419511,
              40.0074205
            ],
            [
              116.3419662,
              40.0073419
            ],
            [
              116.3419914,
              40.0072647
            ],
            [
              116.3420262,
              40.0071898
            ],
            [
              116.3420705,
              40.0071179
            ],
            [
              116.3421236,
              40.0070497
            ],
            [
              116.3421853,
              40.0069858
            ],
            [
              116.3422547,
              40.0069269
            ],
            [
              116.3423314,
              40.0068734
            ],
            [
              116.3424145,
              40.0068261
            ],
            [
              116.3425032,
              40.0067852
            ],
            [
              116.3425967,
              40.0067512
            ],
            [
              116.3426941,
              40.0067244
            ],
            [
              116.3427944,
              40.006705
            ],
            [
              116.3428968,
              40.0066934
            ],
            [
              116.3430001,
              40.0066895
            ],
            [
              116.3466435,
              40.0066896
            ],
            [
              116.3466987,
              40.0008981
            ],
            [
              116.3457619,
              40.0008928
            ],
            [
              116.3457696,
              40.0000823
            ],
            [
              116.3492826,
              40.0001021
            ],
            [
              116.3492749,
              40.0009126
            ],
            [
              116.3483381,
              40.0009073
            ],
            [
              116.3482831,
              40.0066896
            ],
            [
              116.3539999,
              40.0066895
            ],
            [
              116.3541032,
              40.0066934
            ],
            [
              116.3542056,
              40.006705
            ],
            [
              116.3542152,
              40.0067069
            ],
            [
              116.3550542,
              40.0220168
            ],
            [
              116.3550543,
              40.026
            ],
            [
              116.3550492,
              40.0260794
            ],
            [
              116.355034,
              40.0261581
            ],
            [
              116.3550089,
              40.0262353
            ],
            [
              116.3549741,
              40.0263102
            ],
            [
              116.3549298,
              40.0263821
            ],
            [
              116.3548766,
              40.0264503
            ],
            [
              116.3548287,
              40.0265
            ],
            [
              116.3427,
              40.0265
            ],
            [
              116.3419459,
              40.0110427
            ]
          ],
          [
            [
              116.3488957,
              39.9421614
            ],
            [
              116.3491297,
              39.9421627
            ],
            [
              116.34912,
              39.9431896
            ],
            [
              116.3549999,
              39.9431895
            ],
            [
              116.3551031,
              39.9431934
            ],
            [
              116.3552054,
              39.943205
            ],
            [
              116.3553,
              39.9432233
            ],
            [
              116.3553,
              39.9506167
            ],
            [
              116.3552055,
              39.950635
            ],
            [
              116.3551033,
              39.9506466
            ],
            [
              116.3550001,
              39.9506505
            ],
            [
              116.3488153,
              39.9506507
            ],
            [
              116.3486632,
              39.9666767
            ],
            [
              116.3470247,
              39.9666675
            ],
            [
              116.347177,
              39.9506507
            ],
            [
              116.3419999,
              39.9506505
            ],
            [
              116.3418967,
              39.9506466
            ],
            [
              116.3417945,
              39.9506349
            ],
            [
              116.3416942,
              39.9506156
            ],
            [
              116.3415969,
              39.9505888
            ],
            [
              116.3415035,
              39.9505548
            ],
            [
              116.3414149,
              39.9505139
            ],
            [
              116.3413319,
              39.9504665
            ],
            [
              116.3412553,
              39.9504131
            ],
            [
              116.3411859,
              39.9503542
            ],
            [
              116.3411243,
              39.9502903
            ],
            [
              116.3410712,
              39.9502221
            ],
            [
              116.341027,
              39.9501502
            ],
            [
              116.3409922,
              39.9500753
            ],
            [
              116.3409671,
              39.9499981
            ],
            [
              116.3409519,
              39.9499194
            ],
            [
              116.3409469,
              39.94984
            ],
            [
              116.340947,
              39.944
            ],
            [
              116.340952,
              39.9439205
            ],
            [
              116.3409672,
              39.9438419
            ],
            [
              116.3409923,
              39.9437647
            ],
            [
              116.3410271,
              39.9436898
            ],
            [
              116.3410713,
              39.9436179
            ],
            [
              116.3411245,
              39.9435497
            ],
            [
              116.341186,
              39.9434858
            ],
            [
              116.3412554,
              39.9434268
            ],
            [
              116.341332,
              39.9433734
            ],
            [
              116.341415,
              39.943326
            ],
            [
              116.3415037,
              39.9432852
            ],
            [
              116.3415971,
              39.9432511
            ],
            [
              116.3416944,
              39.9432244
            ],
            [
              116.3417946,
              39.943205
            ],
            [
              116.3418969,
              39.9431934
            ],
            [
              116.3420001,
              39.9431895
            ],
            [
              116.3470139,
              39.9431896
            ],
            [
              116.3470238,
              39.9421509
            ],
            [
              116.3472578,
              39.9421522
            ],
            [
              116.3472877,
              39.9390002
            ],
            [
              116.3489257,
              39.9390002
            ],
            [
              116.3488957,
              39.9421614
            ]
          ]
        ]
      }
    }
  ]
}
