{
  "type": "FeatureCollection",
  "name": "public_space_metabolism",
  "crs_note": "Coordinates in EPSG:4326; areas recomputed in EPSG:4548.",
  "features": [
    {
      "type": "Feature",
      "id": "PS-001",
      "properties": {
        "id": "PS-001",
        "layer": "PUBLIC_SPACE",
        "name_zh": "众智园创新广场",
        "name_en": "Zhongzhiyuan Innovation Plaza",
        "source_type": "agent_generated_design",
        "confidence": "medium",
        "geometry_role": "design_proposal",
        "area_sqm_declared": 51999.307,
        "design_note_zh": "公共空间节点，承载活动、展示与人群交换（概念建议）。"
      },
      "geometry": {
        "type": "Polygon",
        "coordinates": [
          [
            [
              116.3458535,
              40.0158346
            ],
            [
              116.3458363,
              40.0176357
            ],
            [
              116.3488816,
              40.0176529
            ],
            [
              116.3488987,
              40.0158518
            ],
            [
              116.3458535,
              40.0158346
            ]
          ]
        ]
      }
    },
    {
      "type": "Feature",
      "id": "PS-002",
      "properties": {
        "id": "PS-002",
        "layer": "PUBLIC_SPACE",
        "name_zh": "原点发布广场",
        "name_en": "Origin Publishing Plaza",
        "source_type": "agent_generated_design",
        "confidence": "medium",
        "geometry_role": "design_proposal",
        "area_sqm_declared": 39101.454,
        "design_note_zh": "公共空间节点，承载活动、展示与人群交换（概念建议）。"
      },
      "geometry": {
        "type": "Polygon",
        "coordinates": [
          [
            [
              116.3462973,
              39.9877278
            ],
            [
              116.3462827,
              39.9892588
            ],
            [
              116.3489755,
              39.989274
            ],
            [
              116.3489901,
              39.987743
            ],
            [
              116.3462973,
              39.9877278
            ]
          ]
        ]
      }
    },
    {
      "type": "Feature",
      "id": "PS-003",
      "properties": {
        "id": "PS-003",
        "layer": "PUBLIC_SPACE",
        "name_zh": "大钟寺站前广场",
        "name_en": "Dazhongsi Station Plaza",
        "source_type": "agent_generated_design",
        "confidence": "medium",
        "geometry_role": "design_proposal",
        "area_sqm_declared": 42500.777,
        "design_note_zh": "公共空间节点，承载活动、展示与人群交换（概念建议）。"
      },
      "geometry": {
        "type": "Polygon",
        "coordinates": [
          [
            [
              116.3465763,
              39.9461438
            ],
            [
              116.3465617,
              39.9476748
            ],
            [
              116.3494869,
              39.9476913
            ],
            [
              116.3495014,
              39.9461603
            ],
            [
              116.3465763,
              39.9461438
            ]
          ]
        ]
      }
    },
    {
      "type": "Feature",
      "id": "PS-004",
      "properties": {
        "id": "PS-004",
        "layer": "PUBLIC_SPACE",
        "name_zh": "南门门户广场",
        "name_en": "South Gate Plaza",
        "source_type": "agent_generated_design",
        "confidence": "medium",
        "geometry_role": "design_proposal",
        "area_sqm_declared": 23399.783,
        "design_note_zh": "公共空间节点，承载活动、展示与人群交换（概念建议）。"
      },
      "geometry": {
        "type": "Polygon",
        "coordinates": [
          [
            [
              116.3470238,
              39.9421509
            ],
            [
              116.3470126,
              39.9433216
            ],
            [
              116.3491186,
              39.9433335
            ],
            [
              116.3491297,
              39.9421627
            ],
            [
              116.3470238,
              39.9421509
            ]
          ]
        ]
      }
    },
    {
      "type": "Feature",
      "id": "PS-005",
      "properties": {
        "id": "PS-005",
        "layer": "PUBLIC_SPACE",
        "name_zh": "北段活动草坪",
        "name_en": "North Event Lawn",
        "source_type": "agent_generated_design",
        "confidence": "medium",
        "geometry_role": "design_proposal",
        "area_sqm_declared": 27000.362,
        "design_note_zh": "公共空间节点，承载活动、展示与人群交换（概念建议）。"
      },
      "geometry": {
        "type": "Polygon",
        "coordinates": [
          [
            [
              116.3457696,
              40.0000823
            ],
            [
              116.3457619,
              40.0008928
            ],
            [
              116.3492749,
              40.0009126
            ],
            [
              116.3492826,
              40.0001021
            ],
            [
              116.3457696,
              40.0000823
            ]
          ]
        ]
      }
    },
    {
      "type": "Feature",
      "id": "PS-006",
      "properties": {
        "id": "PS-006",
        "layer": "PUBLIC_SPACE",
        "name_zh": "南段活动草坪",
        "name_en": "South Event Lawn",
        "source_type": "agent_generated_design",
        "confidence": "medium",
        "geometry_role": "design_proposal",
        "area_sqm_declared": 27001.343,
        "design_note_zh": "公共空间节点，承载活动、展示与人群交换（概念建议）。"
      },
      "geometry": {
        "type": "Polygon",
        "coordinates": [
          [
            [
              116.3460922,
              39.9662569
            ],
            [
              116.3460845,
              39.9670675
            ],
            [
              116.3495957,
              39.9670872
            ],
            [
              116.3496034,
              39.9662767
            ],
            [
              116.3460922,
              39.9662569
            ]
          ]
        ]
      }
    },
    {
      "type": "Feature",
      "id": "PS-007",
      "properties": {
        "id": "PS-007",
        "layer": "PUBLIC_SPACE",
        "name_zh": "街区门户前院网络",
        "name_en": "Quarter forecourt network",
        "source_type": "agent_generated_design",
        "confidence": "medium",
        "geometry_role": "design_proposal",
        "area_sqm_declared": 66498.924,
        "design_note_zh": "沿东西缝合道布置的小型前院，作为社区与场景接口（概念建议）。"
      },
      "geometry": {
        "type": "MultiPolygon",
        "coordinates": [
          [
            [
              [
                116.3455987,
                39.9412905
              ],
              [
                116.3444872,
                39.9412842
              ],
              [
                116.3444812,
                39.9419146
              ],
              [
                116.3455927,
                39.9419209
              ],
              [
                116.3455987,
                39.9412905
              ]
            ]
          ],
          [
            [
              [
                116.3516825,
                39.9413247
              ],
              [
                116.350571,
                39.9413185
              ],
              [
                116.3505651,
                39.9419489
              ],
              [
                116.3516765,
                39.9419551
              ],
              [
                116.3516825,
                39.9413247
              ]
            ]
          ],
          [
            [
              [
                116.3453598,
                39.9663429
              ],
              [
                116.344248,
                39.9663366
              ],
              [
                116.344242,
                39.966967
              ],
              [
                116.3453538,
                39.9669733
              ],
              [
                116.3453598,
                39.9663429
              ]
            ]
          ],
          [
            [
              [
                116.350334,
                39.9663709
              ],
              [
                116.3503281,
                39.9670013
              ],
              [
                116.3514399,
                39.9670075
              ],
              [
                116.3514459,
                39.9663771
              ],
              [
                116.350334,
                39.9663709
              ]
            ]
          ],
          [
            [
              [
                116.3439636,
                39.9960779
              ],
              [
                116.3439576,
                39.9967083
              ],
              [
                116.3450699,
                39.9967146
              ],
              [
                116.345076,
                39.9960842
              ],
              [
                116.3439636,
                39.9960779
              ]
            ]
          ],
          [
            [
              [
                116.3511646,
                39.9961184
              ],
              [
                116.3500523,
                39.9961122
              ],
              [
                116.3500463,
                39.9967426
              ],
              [
                116.3511587,
                39.9967488
              ],
              [
                116.3511646,
                39.9961184
              ]
            ]
          ],
          [
            [
              [
                116.3450369,
                40.0001682
              ],
              [
                116.3439245,
                40.0001619
              ],
              [
                116.3439185,
                40.0007923
              ],
              [
                116.3450309,
                40.0007986
              ],
              [
                116.3450369,
                40.0001682
              ]
            ]
          ],
          [
            [
              [
                116.351126,
                40.0002025
              ],
              [
                116.3500136,
                40.0001963
              ],
              [
                116.3500076,
                40.0008266
              ],
              [
                116.35112,
                40.0008329
              ],
              [
                116.351126,
                40.0002025
              ]
            ]
          ],
          [
            [
              [
                116.3438837,
                40.0044261
              ],
              [
                116.3438777,
                40.0050565
              ],
              [
                116.3449902,
                40.0050628
              ],
              [
                116.3449962,
                40.0044324
              ],
              [
                116.3438837,
                40.0044261
              ]
            ]
          ],
          [
            [
              [
                116.3499731,
                40.0044604
              ],
              [
                116.3499671,
                40.0050908
              ],
              [
                116.3510796,
                40.0050971
              ],
              [
                116.3510856,
                40.0044667
              ],
              [
                116.3499731,
                40.0044604
              ]
            ]
          ]
        ]
      }
    }
  ]
}
